NORAD_CAT_ID,OBJECT_NAME,OBJECT_TYPE,EPOCH,MEAN_MOTION,ECCENTRICITY,INCLINATION,RA_OF_ASC_NODE,ARG_OF_PERICENTER,MEAN_ANOMALY,BSTAR,MEAN_MOTION_DOT,MEAN_MOTION_DDOT,TLE_LINE0,TLE_LINE1,TLE_LINE2,SEMIMAJOR_AXIS,PERIOD,APOGEE,PERIGEE,DECAYED
55665.0,STARLINK-5474,PAYLOAD,2024-02-23 20:03:50,14.98327171,0.0002905,69.9989,242.4572,268.9849,91.0977,-5.3555e-05,-7.32e-06,0.0,0 STARLINK-5474,1 55665U 23021AP  24054.83599900 -.00000732  00000-0 -53555-4 0  9994,2 55665  69.9989 242.4572 0002905 268.9849  91.0977 14.98327171 57410,6950.202,96.107,574.086,570.048,0.0
55665.0,STARLINK-5474,PAYLOAD,2024-02-23 21:39:58,14.98327073,0.0002905,69.9989,242.2889,269.0067,91.0759,-5.372e-05,-7.34e-06,0.0,0 STARLINK-5474,1 55665U 23021AP  24054.90275914 -.00000734  00000-0 -53720-4 0  9994,2 55665  69.9989 242.2889 0002905 269.0067  91.0759 14.98327073 57726,6950.202,96.107,574.086,570.048,0.0
55665.0,STARLINK-5474,PAYLOAD,2024-02-24 13:41:18,14.98330168,0.0002934,69.9989,240.6056,269.0065,91.0758,-1.3972e-07,-9.5e-07,0.0,0 STARLINK-5474,1 55665U 23021AP  24055.57035601 -.00000095  00000-0 -13972-6 0  9992,2 55665  69.9989 240.6056 0002934 269.0065  91.0758 14.98330168 57823,6950.192,96.107,574.097,570.018,0.0
55665.0,STARLINK-5474,PAYLOAD,2024-02-24 18:29:42,14.98330576,0.0002946,69.9989,240.1006,269.0376,91.0446,-1.9261e-06,-1.16e-06,0.0,0 STARLINK-5474,1 55665U 23021AP  24055.77063573 -.00000116  00000-0 -19261-5 0  9993,2 55665  69.9989 240.1006 0002946 269.0376  91.0446 14.98330576 57851,6950.191,96.107,574.104,570.009,0.0
55665.0,STARLINK-5474,PAYLOAD,2024-02-25 13:43:19,14.98327591,0.0003032,69.9987,238.08,269.3778,90.7034,5.3623e-05,5.47e-06,0.0,0 STARLINK-5474,1 55665U 23021AP  24056.57175598  .00000547  00000-0  53623-4 0  9998,2 55665  69.9987 238.0800 0003032 269.3778  90.7034 14.98327591 57978,6950.2,96.107,574.173,569.958,0.0
55665.0,STARLINK-5474,PAYLOAD,2024-02-25 20:07:51,14.98329168,0.0003051,69.9988,237.4067,269.4668,90.6141,3.8295e-05,3.64e-06,0.0,0 STARLINK-5474,1 55665U 23021AP  24056.83879558  .00000364  00000-0  38295-4 0  9999,2 55665  69.9988 237.4067 0003051 269.4668  90.6141 14.98329168 57719,6950.195,96.107,574.181,569.94,0.0
55665.0,STARLINK-5474,PAYLOAD,2024-02-25 21:43:59,14.98329462,0.000305,69.9988,237.2384,269.4996,90.5813,4.0648e-05,3.92e-06,0.0,0 STARLINK-5474,1 55665U 23021AP  24056.90555535  .00000392  00000-0  40648-4 0  9999,2 55665  69.9988 237.2384 0003050 269.4996  90.5813 14.98329462 58029,6950.195,96.107,574.179,569.94,0.0
55665.0,STARLINK-5474,PAYLOAD,2024-02-26 13:45:20,14.98330787,0.0003035,69.9988,235.5551,269.5197,90.5614,1.8297e-05,1.25e-06,0.0,0 STARLINK-5474,1 55665U 23021AP  24057.57315473  .00000125  00000-0  18297-4 0  9997,2 55665  69.9988 235.5551 0003035 269.5197  90.5614 14.98330787 58125,6950.19,96.107,574.165,569.946,0.0
55665.0,STARLINK-5474,PAYLOAD,2024-02-26 20:09:52,14.98333004,0.0003044,69.9987,234.8818,269.6484,90.4326,1.6593e-05,1.05e-06,0.0,0 STARLINK-5474,1 55665U 23021AP  24057.84019299  .00000105  00000-0  16593-4 0  9999,2 55665  69.9987 234.8818 0003044 269.6484  90.4326 14.98333004 57866,6950.184,96.107,574.164,569.933,0.0
55665.0,STARLINK-5474,PAYLOAD,2024-02-26 21:46:00,14.9833309,0.0003044,69.9988,234.7134,269.6793,90.4017,1.7302e-05,1.13e-06,0.0,0 STARLINK-5474,1 55665U 23021AP  24057.90695277  .00000113  00000-0  17302-4 0  9990,2 55665  69.9988 234.7134 0003044 269.6793  90.4017 14.98333090 58177,6950.183,96.107,574.164,569.933,0.0
55665.0,STARLINK-5474,PAYLOAD,2024-02-27 13:47:21,14.98329326,0.0003006,69.9989,233.03,269.7405,90.3409,-1.4657e-05,-2.68e-06,0.0,0 STARLINK-5474,1 55665U 23021AP  24058.57455551 -.00000268  00000-0 -14657-4 0  9996,2 55665  69.9989 233.0300 0003006 269.7405  90.3409 14.98329326 58276,6950.195,96.107,574.149,569.971,0.0
55665.0,STARLINK-5474,PAYLOAD,2024-02-27 20:11:53,14.98330298,0.0003016,69.9989,232.357,269.7624,90.319,-1.347e-05,-2.54e-06,0.0,0 STARLINK-5474,1 55665U 23021AP  24058.84159478 -.00000254  00000-0 -13470-4 0  9992,2 55665  69.9989 232.3570 0003016 269.7624  90.3190 14.98330298 58010,6950.192,96.107,574.153,569.961,0.0
55665.0,STARLINK-5474,PAYLOAD,2024-02-27 21:48:01,14.98330611,0.0003014,69.9989,232.1886,269.8205,90.2608,-9.658e-06,-2.08e-06,0.0,0 STARLINK-5474,1 55665U 23021AP  24058.90835444 -.00000208  00000-0 -96580-5 0  9996,2 55665  69.9989 232.1886 0003014 269.8205  90.2608 14.98330611 58328,6950.191,96.107,574.151,569.961,0.0
55665.0,STARLINK-5474,PAYLOAD,2024-02-28 13:49:22,14.98326148,0.0002901,69.9991,230.5054,270.9331,89.1495,-5.0405e-05,-6.94e-06,0.0,0 STARLINK-5474,1 55665U 23021AP  24059.57595926 -.00000694  00000-0 -50405-4 0  9992,2 55665  69.9991 230.5054 0002901 270.9331  89.1495 14.98326148 58429,6950.205,96.107,574.086,570.054,0.0
55665.0,STARLINK-5474,PAYLOAD,2024-02-28 20:13:55,14.98325183,0.0002919,69.9991,229.8321,271.1706,88.9119,-5.6927e-05,-7.72e-06,0.0,0 STARLINK-5474,1 55665U 23021AP  24059.84300072 -.00000772  00000-0 -56927-4 0  9990,2 55665  69.9991 229.8321 0002919 271.1706  88.9119 14.98325183 58164,6950.208,96.107,574.102,570.044,0.0
55665.0,STARLINK-5474,PAYLOAD,2024-02-28 21:50:03,14.98325369,0.0002919,69.9992,229.6638,271.2027,88.8798,-5.3821e-05,-7.35e-06,0.0,0 STARLINK-5474,1 55665U 23021AP  24059.90976070 -.00000735  00000-0 -53821-4 0  9993,2 55665  69.9992 229.6638 0002919 271.2027  88.8798 14.98325369 58473,6950.207,96.107,574.101,570.043,0.0
55665.0,STARLINK-5474,PAYLOAD,2024-02-29 12:15:15,14.98330221,0.0002982,69.9991,228.1489,269.1335,90.9482,2.3334e-05,1.85e-06,0.0,0 STARLINK-5474,1 55665U 23021AP  24060.51059602  .00000185  00000-0  23334-4 0  9998,2 55665  69.9991 228.1489 0002982 269.1335  90.9482 14.98330221 58262,6950.192,96.107,574.13,569.985,0.0
55665.0,STARLINK-5474,PAYLOAD,2024-02-29 13:51:23,14.98330196,0.0002985,69.9991,227.9806,269.1032,90.9785,2.2914e-05,1.8e-06,0.0,0 STARLINK-5474,1 55665U 23021AP  24060.57735601  .00000180  00000-0  22914-4 0  9992,2 55665  69.9991 227.9806 0002985 269.1032  90.9785 14.98330196 58570,6950.192,96.107,574.132,569.983,0.0
55665.0,STARLINK-5474,PAYLOAD,2024-02-29 21:52:03,14.98332171,0.0002977,69.9993,227.1389,269.5549,90.5269,4.3461e-05,4.26e-06,0.0,0 STARLINK-5474,1 55665U 23021AP  24060.91115420  .00000426  00000-0  43461-4 0  9994,2 55665  69.9993 227.1389 0002977 269.5549  90.5269 14.98332171 58622,6950.186,96.107,574.12,569.982,0.0
55665.0,STARLINK-5474,PAYLOAD,2024-03-01 13:53:24,14.98331316,0.000302,69.9993,225.4555,269.576,90.5053,9.9256e-05,1.092e-05,0.0,0 STARLINK-5474,1 55665U 23021AP  24061.57875241  .00001092  00000-0  99256-4 0  9994,2 55665  69.9993 225.4555 0003020 269.5760  90.5053 14.98331316 58725,6950.189,96.107,574.153,569.955,0.0
55665.0,STARLINK-5474,PAYLOAD,2024-03-01 20:17:56,14.98334271,0.0003024,69.9994,224.7821,269.3376,90.7437,0.00010265,1.132e-05,0.0,0 STARLINK-5474,1 55665U 23021AP  24061.84578983  .00001132  00000-0  10265-3 0  9994,2 55665  69.9994 224.7821 0003024 269.3376  90.7437 14.98334271 58764,6950.18,96.107,574.146,569.943,0.0
55665.0,STARLINK-5474,PAYLOAD,2024-03-02 12:19:17,14.98332176,0.0002941,69.9998,223.0992,268.9909,91.0913,-1.0085e-05,-2.13e-06,0.0,0 STARLINK-5474,1 55665U 23021AP  24062.51339287 -.00000213  00000-0 -10085-4 0  9993,2 55665  69.9998 223.0992 0002941 268.9909  91.0913 14.98332176 58566,6950.186,96.107,574.095,570.007,0.0
55665.0,STARLINK-5474,PAYLOAD,2024-03-02 13:55:25,14.98330592,0.0002977,69.9996,222.9307,269.1014,90.9804,-2.166e-05,-3.51e-06,0.0,0 STARLINK-5474,1 55665U 23021AP  24062.58015401 -.00000351  00000-0 -21660-4 0  9993,2 55665  69.9996 222.9307 0002977 269.1014  90.9804 14.98330592 58872,6950.191,96.107,574.125,569.987,0.0
55665.0,STARLINK-5474,PAYLOAD,2024-03-02 20:19:57,14.98333337,0.0002979,69.9994,222.2572,268.8849,91.1969,1.1574e-06,-7.9e-07,0.0,0 STARLINK-5474,1 55665U 23021AP  24062.84719105 -.00000079  00000-0  11574-5 0  9994,2 55665  69.9994 222.2572 0002979 268.8849  91.1969 14.98333337 58911,6950.183,96.107,574.118,569.977,0.0
55665.0,STARLINK-5474,PAYLOAD,2024-03-03 12:21:18,14.98330432,0.0002985,69.9993,220.5737,269.131,90.9507,-5.9416e-05,-8.02e-06,0.0,0 STARLINK-5474,1 55665U 23021AP  24063.51479351 -.00000802  00000-0 -59416-4 0  9996,2 55665  69.9993 220.5737 0002985 269.1310  90.9507 14.98330432 58714,6950.192,96.107,574.131,569.982,0.0
55665.0,STARLINK-5474,PAYLOAD,2024-03-03 13:57:26,14.98330273,0.0002988,69.9993,220.4054,269.1168,90.9649,-5.9772e-05,-8.06e-06,0.0,0 STARLINK-5474,1 55665U 23021AP  24063.58155355 -.00000806  00000-0 -59772-4 0  9997,2 55665  69.9993 220.4054 0002988 269.1168  90.9649 14.98330273 59024,6950.192,96.107,574.134,569.98,0.0
55665.0,STARLINK-5474,PAYLOAD,2024-03-03 20:21:58,14.98335244,0.000291,69.9993,219.7322,268.2666,91.816,-2.7047e-05,-4.16e-06,0.0,0 STARLINK-5474,1 55665U 23021AP  24063.84858908 -.00000416  00000-0 -27047-4 0  9997,2 55665  69.9993 219.7322 0002910 268.2666  91.8160 14.98335244 59066,6950.177,96.107,574.064,570.019,0.0
55665.0,STARLINK-5474,PAYLOAD,2024-03-04 12:23:18,14.98338413,0.0002989,69.9992,218.0492,270.0973,89.9844,8.0654e-05,8.7e-06,0.0,0 STARLINK-5474,1 55665U 23021AP  24064.51618108  .00000870  00000-0  80654-4 0  9993,2 55665  69.9992 218.0492 0002989 270.0973  89.9844 14.98338413 58868,6950.167,96.106,574.109,569.954,0.0
55665.0,STARLINK-5474,PAYLOAD,2024-03-04 13:59:26,14.98338767,0.0002988,69.9993,217.8808,270.1364,89.9453,8.4086e-05,9.11e-06,0.0,0 STARLINK-5474,1 55665U 23021AP  24064.58294039  .00000911  00000-0  84086-4 0  9992,2 55665  69.9993 217.8808 0002988 270.1364  89.9453 14.98338767 59174,6950.166,96.106,574.107,569.954,0.0
55665.0,STARLINK-5474,PAYLOAD,2024-03-04 20:23:57,14.98385252,0.0002889,69.9997,217.2085,275.4626,84.6203,-0.00062587,-7.563e-05,0.0,0 STARLINK-5474,1 55665U 23021AP  24064.84996543 -.00007563  00000-0 -62587-3 0  9993,2 55665  69.9997 217.2085 0002889 275.4626  84.6203 14.98385252 58915,6950.022,96.103,573.895,569.879,0.0
